NORAD_CAT_ID,OBJECT_NAME,OBJECT_TYPE,EPOCH,MEAN_MOTION,ECCENTRICITY,INCLINATION,RA_OF_ASC_NODE,ARG_OF_PERICENTER,MEAN_ANOMALY,BSTAR,MEAN_MOTION_DOT,MEAN_MOTION_DDOT,TLE_LINE0,TLE_LINE1,TLE_LINE2,SEMIMAJOR_AXIS,PERIOD,APOGEE,PERIGEE,DECAYED
53543.0,STARLINK-4297,PAYLOAD,2024-08-12 22:32:13,15.08881214,0.0001743,53.2172,119.8549,61.2012,298.9155,0.003239,0.00051698,0.0,0 STARLINK-4297,1 53543U 22101S   24225.93904300  .00051698  00000-0  32390-2 0  9997,2 53543  53.2172 119.8549 0001743  61.2012 298.9155 15.08881214110375,6917.754,95.435,540.825,538.414,0.0
53543.0,STARLINK-4297,PAYLOAD,2024-08-13 09:39:54,15.08869819,7.84e-05,53.2154,117.7762,67.8318,292.2757,0.0011135,0.00017492,0.0,0 STARLINK-4297,1 53543U 22101S   24226.40271238  .00017492  00000-0  11135-2 0  9995,2 53543  53.2154 117.7762 0000784  67.8318 292.2757 15.08869819109756,6917.789,95.436,540.197,539.112,0.0
53543.0,STARLINK-4297,PAYLOAD,2024-08-13 22:23:01,15.08807619,0.0001893,53.217,115.3988,96.5006,263.6202,0.0011756,0.00018455,0.0,0 STARLINK-4297,1 53543U 22101S   24226.93265269  .00018455  00000-0  11756-2 0  9999,2 53543  53.2170 115.3988 0001893  96.5006 263.6202 15.08807619110527,6917.979,95.44,541.154,538.535,0.0
53543.0,STARLINK-4297,PAYLOAD,2024-08-14 03:09:11,15.08822796,0.00018,53.2162,114.5058,94.8579,265.2618,0.0031244,0.00049765,0.0,0 STARLINK-4297,1 53543U 22101S   24227.13137798  .00049765  00000-0  31244-2 0  9999,2 53543  53.2162 114.5058 0001800  94.8579 265.2618 15.08822796109868,6917.933,95.439,541.043,538.553,0.0
53543.0,STARLINK-4297,PAYLOAD,2024-08-14 09:30:43,15.08834945,0.0001031,53.2163,113.3168,100.1888,259.9221,0.0024648,0.00039152,0.0,0 STARLINK-4297,1 53543U 22101S   24227.39633770  .00039152  00000-0  24648-2 0  9997,2 53543  53.2163 113.3168 0001031 100.1888 259.9221 15.08834945110599,6917.896,95.438,540.474,539.048,0.0
53543.0,STARLINK-4297,PAYLOAD,2024-08-14 22:13:48,15.08851658,0.0001679,53.2154,110.9359,91.7087,268.4097,0.0015258,0.00024086,0.0,0 STARLINK-4297,1 53543U 22101S   24227.92626056  .00024086  00000-0  15258-2 0  9992,2 53543  53.2154 110.9359 0001679  91.7087 268.4097 15.08851658110673,6917.845,95.437,540.871,538.548,0.0
53543.0,STARLINK-4297,PAYLOAD,2024-08-14 23:49:11,15.08854843,0.0001637,53.2151,110.6371,90.93,269.188,0.0016307,0.00025771,0.0,0 STARLINK-4297,1 53543U 22101S   24227.99249990  .00025771  00000-0  16307-2 0  9995,2 53543  53.2151 110.6371 0001637  90.9300 269.1880 15.08854843109994,6917.835,95.437,540.832,538.568,0.0
53543.0,STARLINK-4297,PAYLOAD,2024-08-15 09:21:30,15.08850536,0.0001709,53.216,108.853,81.9428,278.1758,0.00069977,0.0001087,0.0,0 STARLINK-4297,1 53543U 22101S   24228.38994065  .00010870  00000-0  69977-3 0  9995,2 53543  53.2160 108.8530 0001709  81.9428 278.1758 15.08850536110745,6917.848,95.437,540.895,538.531,0.0
53543.0,STARLINK-4297,PAYLOAD,2024-08-15 22:04:36,15.0885058,0.0002131,53.2157,106.4771,80.0235,280.0997,0.0013546,0.00021343,0.0,0 STARLINK-4297,1 53543U 22101S   24228.91986305  .00021343  00000-0  13546-2 0  9999,2 53543  53.2157 106.4771 0002131  80.0235 280.0997 15.08850580110823,6917.848,95.437,541.187,538.239,0.0
53543.0,STARLINK-4297,PAYLOAD,2024-08-15 23:39:59,15.08844873,0.0001677,53.2157,106.1798,78.8045,281.3135,0.0012616,0.0001985,0.0,0 STARLINK-4297,1 53543U 22101S   24228.98610308  .00019850  00000-0  12616-2 0  9990,2 53543  53.2157 106.1798 0001677  78.8045 281.3135 15.08844873110148,6917.865,95.437,540.891,538.57,0.0
53543.0,STARLINK-4297,PAYLOAD,2024-08-17 01:06:09,15.08856136,0.0001689,53.216,101.4188,81.8502,278.2682,0.00070226,0.00010911,0.0,0 STARLINK-4297,1 53543U 22101S   24230.04593895  .00010911  00000-0  70226-3 0  9992,2 53543  53.2160 101.4188 0001689  81.8502 278.2682 15.08856136110303,6917.831,95.437,540.864,538.528,0.0
53543.0,STARLINK-4297,PAYLOAD,2024-08-17 21:46:11,15.08816151,0.0001397,53.2163,97.5529,97.8688,262.2462,6.8279e-05,7.98e-06,0.0,0 STARLINK-4297,1 53543U 22101S   24230.90707749  .00000798  00000-0  68279-4 0  9990,2 53543  53.2163  97.5529 0001397  97.8688 262.2462 15.08816151111121,6917.953,95.439,540.785,538.852,0.0
53543.0,STARLINK-4297,PAYLOAD,2024-08-18 00:56:58,15.08819593,0.0001394,53.2163,96.9586,86.6633,273.4519,9.5415e-05,1.23e-05,0.0,0 STARLINK-4297,1 53543U 22101S   24231.03956041  .00001230  00000-0  95415-4 0  9990,2 53543  53.2163  96.9586 0001394  86.6633 273.4519 15.08819593110455,6917.943,95.439,540.772,538.843,0.0
53543.0,STARLINK-4297,PAYLOAD,2024-08-18 20:01:35,15.0886366,0.0001162,53.2165,93.3953,91.7922,268.3204,0.0014626,0.00023081,0.0,0 STARLINK-4297,1 53543U 22101S   24231.83443713  .00023081  00000-0  14626-2 0  9996,2 53543  53.2165  93.3953 0001162  91.7922 268.3204 15.08863660110578,6917.808,95.436,540.477,538.869,0.0
53543.0,STARLINK-4297,PAYLOAD,2024-08-18 21:36:58,15.08872278,0.0001202,53.2168,93.098,99.7761,260.3367,0.0016295,0.00025764,0.0,0 STARLINK-4297,1 53543U 22101S   24231.90067472  .00025764  00000-0  16295-2 0  9992,2 53543  53.2168  93.0980 0001202  99.7761 260.3367 15.08872278111277,6917.782,95.436,540.478,538.815,0.0
53543.0,STARLINK-4297,PAYLOAD,2024-08-19 15:06:12,15.08867795,0.0001249,53.2166,89.826,89.8709,270.2426,0.0012676,0.00019959,0.0,0 STARLINK-4297,1 53543U 22101S   24232.62930990  .00019959  00000-0  12676-2 0  9994,2 53543  53.2166  89.8260 0001249  89.8709 270.2426 15.08867795111388,6917.795,95.436,540.524,538.796,0.0
53543.0,STARLINK-4297,PAYLOAD,2024-08-19 21:27:44,15.08856087,0.0001048,53.2161,88.6344,87.529,272.5822,0.00062659,9.703e-05,0.0,0 STARLINK-4297,1 53543U 22101S   24232.89426767  .00009703  00000-0  62659-3 0  9998,2 53543  53.2161  88.6344 0001048  87.5290 272.5822 15.08856087110735,6917.831,95.437,540.421,538.971,0.0
53543.0,STARLINK-4297,PAYLOAD,2024-08-20 07:00:03,15.08850761,0.0001648,53.2159,86.8541,86.6388,273.4793,0.00057071,8.809e-05,0.0,0 STARLINK-4297,1 53543U 22101S   24233.29170823  .00008809  00000-0  57071-3 0  9990,2 53543  53.2159  86.8541 0001648  86.6388 273.4793 15.08850761110791,6917.847,95.437,540.853,538.572,0.0
53543.0,STARLINK-4297,PAYLOAD,2024-08-20 19:43:08,15.08848299,0.0001351,53.2168,84.4719,94.8766,265.238,9.0385e-05,1.151e-05,0.0,0 STARLINK-4297,1 53543U 22101S   24233.82162425  .00001151  00000-0  90385-4 0  9997,2 53543  53.2168  84.4719 0001351  94.8766 265.2380 15.08848299110877,6917.855,95.437,540.655,538.785,0.0
53543.0,STARLINK-4297,PAYLOAD,2024-08-21 00:29:17,15.08855696,0.0001359,53.2169,83.5806,98.7621,261.3525,2.824e-05,1.62e-06,0.0,0 STARLINK-4297,1 53543U 22101S   24234.02033992  .00000162  00000-0  28240-4 0  9998,2 53543  53.2169  83.5806 0001359  98.7621 261.3525 15.08855696111593,6917.832,95.437,540.638,538.757,0.0
53543.0,STARLINK-4297,PAYLOAD,2024-08-21 17:58:32,15.08837985,0.0001395,53.2173,80.3092,93.6502,266.465,-1.0037e-05,-4.48e-06,0.0,0 STARLINK-4297,1 53543U 22101S   24234.74898896 -.00000448  00000-0 -10037-4 0  9993,2 53543  53.2173  80.3092 0001395  93.6502 266.4650 15.08837985111015,6917.887,95.438,540.717,538.787,0.0
53543.0,STARLINK-4297,PAYLOAD,2024-08-21 19:33:55,15.08838961,0.0001356,53.2167,80.0125,86.1856,273.9292,9.6174e-06,-1.35e-06,0.0,0 STARLINK-4297,1 53543U 22101S   24234.81522890 -.00000135  00000-0  96174-5 0  9998,2 53543  53.2167  80.0125 0001356  86.1856 273.9292 15.08838961111715,6917.884,95.438,540.687,538.81,0.0
